{"type":"FeatureCollection","features":[{"type":"Feature","geometry":{"type":"MultiPolygon","coordinates":[[[[7.38885,46.80463],[7.55654,46.80458],[7.55629,46.68944],[7.42243,46.6895],[7.42241,46.73555],[7.38892,46.73554],[7.38885,46.80463]]],[[[7.71192,46.85856],[7.71402,46.85855],[7.71454,46.9602],[7.71139,46.96021],[7.71209,47.09837],[7.94813,47.09757],[8.21788,47.09605],[8.21605,46.96977],[8.2192,46.96975],[8.21908,46.96102],[8.39433,46.9597],[8.56248,46.95817],[8.56008,46.84304],[8.39229,46.84457],[8.21741,46.84589],[8.2172,46.83159],[8.2151,46.8316],[8.2138,46.74111],[7.94583,46.74262],[7.71134,46.74342],[7.71192,46.85856]]],[[[8.54687,47.10577],[8.54964,47.10574],[8.55107,47.17472],[8.65236,47.1737],[8.6508,47.10472],[8.68176,47.10439],[8.67962,47.01229],[8.54497,47.01367],[8.54687,47.10577]]],[[[7.8153,47.33356],[8.15398,47.33196],[8.15244,47.21683],[7.98347,47.21776],[7.81449,47.21843],[7.8153,47.33356]]]]},"properties":{"region":"EBR","country":"Switzerland","year":2019,"default_box":[7.991,46.907,8.076,46.965],"models":["UNet-SLS","KG-UNet1","KG-UNet2"],"weights":"EBR","cells":411}},{"type":"Feature","geometry":{"type":"MultiPolygon","coordinates":[[[[173.32403,-41.64274],[173.32238,-41.59666],[173.32633,-41.59658],[173.32336,-41.51351],[173.32587,-41.51346],[173.32279,-41.42733],[173.32506,-41.42728],[173.32249,-41.3551],[173.35307,-41.35448],[173.35141,-41.3084],[173.41109,-41.30716],[173.40873,-41.24308],[173.43926,-41.24244],[173.4384,-41.2194],[173.46891,-41.21875],[173.46805,-41.19571],[173.49855,-41.19505],[173.49767,-41.17201],[173.57377,-41.17034],[173.5687,-41.04039],[173.72083,-41.0369],[173.87292,-41.03321],[173.87327,-41.04112],[174.16648,-41.03343],[174.173,-41.16898],[174.29594,-41.16552],[174.30174,-41.28063],[174.27122,-41.2815],[174.27237,-41.30452],[174.24184,-41.30539],[174.24298,-41.32841],[174.1233,-41.33173],[174.12426,-41.35178],[174.09371,-41.35261],[174.09589,-41.39866],[174.03473,-41.40029],[174.0358,-41.42332],[174.01441,-41.42388],[174.01523,-41.44169],[173.87871,-41.44519],[173.88071,-41.49044],[173.81945,-41.49196],[173.82017,-41.50843],[173.87498,-41.50707],[173.876,-41.5301],[173.90665,-41.52933],[173.91078,-41.62144],[173.87146,-41.62243],[173.87195,-41.63359],[173.77986,-41.63585],[173.78085,-41.65888],[173.71942,-41.66035],[173.7204,-41.68339],[173.62822,-41.68553],[173.63009,-41.7316],[173.56859,-41.73299],[173.56846,-41.72975],[173.51189,-41.73101],[173.51278,-41.75404],[173.48202,-41.75471],[173.48291,-41.77775],[173.42136,-41.77906],[173.41962,-41.73299],[173.38887,-41.73363],[173.38716,-41.68755],[173.35643,-41.68819],[173.35475,-41.64211],[173.32403,-41.64274]],[[173.98609,-41.08437],[174.01653,-41.08357],[174.01547,-41.06054],[173.98505,-41.06134],[173.98609,-41.08437]]],[[[173.96022,-40.92409],[173.92985,-40.92486],[173.92883,-40.90183],[173.95919,-40.90106],[173.96022,-40.92409]]],[[[173.77801,-40.92862],[173.77224,-40.79042],[173.80255,-40.78968],[173.80158,-40.76665],[173.95304,-40.76287],[173.95611,-40.83196],[173.92579,-40.83274],[173.92782,-40.8788],[173.89747,-40.87957],[173.89848,-40.9026],[173.83776,-40.90411],[173.83875,-40.92714],[173.77801,-40.92862]]]]},"properties":{"region":"MRF","country":"New Zealand","year":2020,"default_box":[173.44,-41.29,173.53,-41.22],"models":["UNet-SLS","KG-UNet1","KG-UNet2"],"weights":"MRF","cells":791}},{"type":"Feature","geometry":{"type":"Polygon","coordinates":[[[-91.52198,17.44978],[-91.52085,17.58857],[-91.54497,17.58875],[-91.54404,17.70441],[-91.51991,17.70423],[-91.51972,17.72736],[-91.39903,17.72642],[-91.39821,17.81894],[-91.37406,17.81874],[-91.37385,17.84187],[-91.2531,17.84083],[-91.25242,17.91021],[-91.22826,17.90999],[-91.22734,18.0025],[-91.20317,18.00228],[-91.20294,18.02541],[-91.17876,18.02518],[-91.17852,18.04831],[-91.13017,18.04785],[-91.12968,18.0941],[-91.1055,18.09386],[-91.10525,18.11699],[-90.96015,18.11551],[-90.96042,18.09238],[-90.88788,18.0916],[-90.88816,18.06848],[-90.86398,18.06821],[-90.86537,17.9526],[-90.88953,17.95286],[-90.88981,17.92974],[-90.91396,17.93],[-90.91424,17.90688],[-90.93839,17.90714],[-90.93866,17.88401],[-91.03526,17.88501],[-91.03653,17.76938],[-91.06067,17.76962],[-91.06092,17.7465],[-91.08505,17.74673],[-91.08579,17.67735],[-91.06166,17.67712],[-91.06388,17.46898],[-91.08798,17.46921],[-91.08822,17.44608],[-91.23279,17.44742],[-91.23257,17.47055],[-91.25667,17.47076],[-91.25534,17.60954],[-91.27946,17.60975],[-91.27968,17.58662],[-91.30379,17.58683],[-91.30487,17.47118],[-91.32897,17.47138],[-91.32918,17.44825],[-91.35328,17.44845],[-91.35349,17.42532],[-91.49806,17.42647],[-91.49788,17.4496],[-91.52198,17.44978]]]},"properties":{"region":"MUR","country":"Mexico","year":2019,"default_box":[-91.175,17.776,-91.114,17.834],"models":["UNet-SLS","KG-UNet1","KG-UNet2"],"weights":"MUR","cells":434}},{"type":"Feature","geometry":{"type":"MultiPolygon","coordinates":[[[[117.60201,4.86083],[117.60217,5.04609],[117.62527,5.04607],[117.62531,5.09239],[117.64841,5.09236],[117.64843,5.11552],[117.69462,5.11547],[117.69465,5.13863],[117.85632,5.13843],[117.85629,5.11528],[117.90248,5.11521],[117.90245,5.09206],[117.92554,5.09202],[117.92551,5.06887],[117.9486,5.06883],[117.94857,5.04568],[117.97166,5.04564],[117.97132,4.81408],[117.94824,4.81412],[117.94817,4.7678],[117.92509,4.76783],[117.92506,4.74468],[117.90198,4.74471],[117.90195,4.72155],[117.7173,4.72177],[117.71732,4.74493],[117.67115,4.74497],[117.67118,4.76813],[117.64809,4.76815],[117.64814,4.81447],[117.62505,4.81449],[117.62509,4.86081],[117.60201,4.86083]]],[[[118.06973,5.68072],[118.00038,5.68084],[118.00042,5.704],[118.02354,5.70396],[118.02358,5.72711],[118.06981,5.72703],[118.06973,5.68072]]],[[[118.11605,5.72694],[118.116,5.70378],[118.09289,5.70383],[118.09293,5.72698],[118.11605,5.72694]]],[[[118.09297,5.75014],[118.09306,5.79645],[118.1393,5.79636],[118.13925,5.7732],[118.11614,5.77325],[118.11609,5.75009],[118.09297,5.75014]]],[[[117.7696,5.95907],[117.81586,5.95901],[117.81582,5.93585],[117.83895,5.93582],[117.83898,5.95897],[117.88524,5.9589],[117.88531,6.00521],[117.93157,6.00514],[117.93161,6.02829],[118.04726,6.02808],[118.04717,5.98177],[118.0703,5.98173],[118.07016,5.91226],[118.09329,5.91222],[118.09333,5.93537],[118.11646,5.93533],[118.11632,5.86586],[118.13944,5.86582],[118.13935,5.81951],[118.09311,5.8196],[118.09306,5.79645],[118.04682,5.79653],[118.04678,5.77338],[118.02366,5.77342],[118.02358,5.72711],[117.95423,5.72723],[117.95415,5.68092],[118.00038,5.68084],[118.00034,5.65769],[117.88477,5.65787],[117.8848,5.68103],[117.81545,5.68113],[117.81549,5.70429],[117.79237,5.70432],[117.7924,5.72748],[117.76928,5.72751],[117.76931,5.75067],[117.74619,5.7507],[117.74644,5.93595],[117.76957,5.93592],[117.7696,5.95907]]]]},"properties":{"region":"SER","country":"Malaysia","year":2020,"default_box":[117.746,4.936,117.804,4.994],"models":["UNet-SLS","KG-UNet1","KG-UNet2"],"weights":"SER","cells":439}},{"type":"Feature","geometry":{"type":"MultiPolygon","coordinates":[[[[-46.92348,-23.9895],[-46.91973,-23.73529],[-46.89463,-23.7356],[-46.89396,-23.68938],[-46.84377,-23.68999],[-46.84344,-23.66687],[-46.71798,-23.66832],[-46.71828,-23.69143],[-46.59278,-23.69277],[-46.59306,-23.71589],[-46.54285,-23.7164],[-46.5434,-23.76263],[-46.51828,-23.76287],[-46.51909,-23.83222],[-46.49396,-23.83247],[-46.49609,-24.01739],[-46.52125,-24.01714],[-46.5218,-24.06337],[-46.54697,-24.06311],[-46.54725,-24.08623],[-46.5976,-24.08571],[-46.59789,-24.10882],[-46.79932,-24.10658],[-46.799,-24.08347],[-46.84934,-24.08287],[-46.84901,-24.05976],[-46.87418,-24.05946],[-46.87384,-24.03635],[-46.89901,-24.03604],[-46.89833,-23.98982],[-46.92348,-23.9895]]],[[[-46.8158,-23.48227],[-46.81423,-23.36671],[-46.78919,-23.367],[-46.78857,-23.32077],[-46.73851,-23.32133],[-46.73821,-23.29822],[-46.66314,-23.29903],[-46.66285,-23.27592],[-46.53775,-23.2772],[-46.53801,-23.30031],[-46.48796,-23.3008],[-46.48847,-23.34703],[-46.46344,-23.34726],[-46.46471,-23.46285],[-46.48977,-23.46261],[-46.49029,-23.50884],[-46.54042,-23.50836],[-46.54069,-23.53147],[-46.6159,-23.53071],[-46.61618,-23.55382],[-46.74154,-23.55247],[-46.74124,-23.52936],[-46.79137,-23.52879],[-46.79075,-23.48256],[-46.8158,-23.48227]]]]},"properties":{"region":"SPC","country":"Brazil","year":2019,"default_box":[-46.74,-23.917,-46.677,-23.859],"models":["UNet-SLS","KG-UNet1","KG-UNet2"],"weights":"SPC","cells":414}}]}
